{
  "type": "FeatureCollection",
  "features": [
    {
      "type": "Feature",
      "properties": {
        "norad_id": 30891,
        "name": "FENGYUN 1C DEB",
        "group": "fengyun-1c-debris",
        "lat": -78.09271310699393,
        "lon": 71.83989462442436,
        "alt_km": 862.3254319808457,
        "timestamp": "2025-12-02T17:49:12.307331+00:00",
        "meta_object_name": "FENGYUN 1C DEB",
        "meta_object_id": "1999-025AYD",
        "meta_epoch": "2025-12-02T02:58:17.770656",
        "meta_mean_motion": 14.05825711,
        "meta_eccentricity": 0.00548456,
        "meta_inclination": 98.7861,
        "meta_ra_of_asc_node": 24.0646,
        "meta_arg_of_pericenter": 217.5354,
        "meta_mean_anomaly": 170.5682,
        "meta_ephemeris_type": 0,
        "meta_classification_type": "U",
        "meta_norad_cat_id": 30891,
        "meta_element_set_no": 999,
        "meta_rev_at_epoch": 95833,
        "meta_bstar": 0.00084285691,
        "meta_mean_motion_dot": 1.353e-05,
        "meta_mean_motion_ddot": 0,
        "tle_line1": "1 30891U 99025AYD 25336.12381679  .00001353  00000+0  84286-3 0  9994",
        "tle_line2": "2 30891  98.7861  24.0646 0054845 217.5354 170.5682 14.05825711958338"
      },
      "geometry": {
        "type": "Point",
        "coordinates": [
          71.83989462442436,
          -78.09271310699393
        ]
      }
    },
    {
      "type": "Feature",
      "properties": {
        "norad_id": 30892,
        "name": "FENGYUN 1C DEB",
        "group": "fengyun-1c-debris",
        "lat": 74.62428834486633,
        "lon": -119.24666029884254,
        "alt_km": 842.5108097984057,
        "timestamp": "2025-12-02T17:49:12.307341+00:00",
        "meta_object_name": "FENGYUN 1C DEB",
        "meta_object_id": "1999-025AYE",
        "meta_epoch": "2025-12-02T02:13:11.454816",
        "meta_mean_motion": 14.18891821,
        "meta_eccentricity": 0.00376143,
        "meta_inclination": 99.6617,
        "meta_ra_of_asc_node": 278.3246,
        "meta_arg_of_pericenter": 219.3415,
        "meta_mean_anomaly": 140.5024,
        "meta_ephemeris_type": 0,
        "meta_classification_type": "U",
        "meta_norad_cat_id": 30892,
        "meta_element_set_no": 999,
        "meta_rev_at_epoch": 64152,
        "meta_bstar": 0.0004842513,
        "meta_mean_motion_dot": 9.64e-06,
        "meta_mean_motion_ddot": 0,
        "tle_line1": "1 30892U 99025AYE 25336.09249369  .00000964  00000+0  48425-3 0  9992",
        "tle_line2": "2 30892  99.6617 278.3246 0037614 219.3415 140.5024 14.18891821641527"
      },
      "geometry": {
        "type": "Point",
        "coordinates": [
          -119.24666029884254,
          74.62428834486633
        ]
      }
    },
    {
      "type": "Feature",
      "properties": {
        "norad_id": 30893,
        "name": "FENGYUN 1C DEB",
        "group": "fengyun-1c-debris",
        "lat": -28.72207653633902,
        "lon": 9.522769278738725,
        "alt_km": 1113.8421666463537,
        "timestamp": "2025-12-02T17:49:12.307351+00:00",
        "meta_object_name": "FENGYUN 1C DEB",
        "meta_object_id": "1999-025AYF",
        "meta_epoch": "2025-12-02T07:42:31.343904",
        "meta_mean_motion": 13.94021786,
        "meta_eccentricity": 0.0309857,
        "meta_inclination": 98.2586,
        "meta_ra_of_asc_node": 4.5805,
        "meta_arg_of_pericenter": 122.0136,
        "meta_mean_anomaly": 257.7195,
        "meta_ephemeris_type": 0,
        "meta_classification_type": "U",
        "meta_norad_cat_id": 30893,
        "meta_element_set_no": 999,
        "meta_rev_at_epoch": 94740,
        "meta_bstar": 0.00086189,
        "meta_mean_motion_dot": 1.663e-05,
        "meta_mean_motion_ddot": 0,
        "tle_line1": "1 30893U 99025AYF 25336.32119611  .00001663  00000+0  86189-3 0  9991",
        "tle_line2": "2 30893  98.2586   4.5805 0309857 122.0136 257.7195 13.94021786947403"
      },
      "geometry": {
        "type": "Point",
        "coordinates": [
          9.522769278738725,
          -28.72207653633902
        ]
      }
    },
    {
      "type": "Feature",
      "properties": {
        "norad_id": 30895,
        "name": "FENGYUN 1C DEB",
        "group": "fengyun-1c-debris",
        "lat": -40.37976212831056,
        "lon": 52.68398078662117,
        "alt_km": 944.4064264241306,
        "timestamp": "2025-12-02T17:49:12.307361+00:00",
        "meta_object_name": "FENGYUN 1C DEB",
        "meta_object_id": "1999-025AYH",
        "meta_epoch": "2025-12-01T03:34:50.104992",
        "meta_mean_motion": 14.31491493,
        "meta_eccentricity": 0.02179299,
        "meta_inclination": 98.7211,
        "meta_ra_of_asc_node": 43.5818,
        "meta_arg_of_pericenter": 158.0221,
        "meta_mean_anomaly": 234.2314,
        "meta_ephemeris_type": 0,
        "meta_classification_type": "U",
        "meta_norad_cat_id": 30895,
        "meta_element_set_no": 999,
        "meta_rev_at_epoch": 97627,
        "meta_bstar": 0.00052912471,
        "meta_mean_motion_dot": 1.775e-05,
        "meta_mean_motion_ddot": 0,
        "tle_line1": "1 30895U 99025AYH 25335.14919103  .00001775  00000+0  52912-3 0  9997",
        "tle_line2": "2 30895  98.7211  43.5818 0217929 158.0221 234.2314 14.31491493976272"
      },
      "geometry": {
        "type": "Point",
        "coordinates": [
          52.68398078662117,
          -40.37976212831056
        ]
      }
    },
    {
      "type": "Feature",
      "properties": {
        "norad_id": 30898,
        "name": "FENGYUN 1C DEB",
        "group": "fengyun-1c-debris",
        "lat": 47.76267521603754,
        "lon": 76.31184249913944,
        "alt_km": 474.2919707077972,
        "timestamp": "2025-12-02T17:49:12.307372+00:00",
        "meta_object_name": "FENGYUN 1C DEB",
        "meta_object_id": "1999-025AYL",
        "meta_epoch": "2025-12-01T23:52:01.976448",
        "meta_mean_motion": 15.20079673,
        "meta_eccentricity": 0.00399108,
        "meta_inclination": 99.0257,
        "meta_ra_of_asc_node": 245.335,
        "meta_arg_of_pericenter": 146.5036,
        "meta_mean_anomaly": 213.873,
        "meta_ephemeris_type": 0,
        "meta_classification_type": "U",
        "meta_norad_cat_id": 30898,
        "meta_element_set_no": 999,
        "meta_rev_at_epoch": 66208,
        "meta_bstar": 0.00270501,
        "meta_mean_motion_dot": 0.00060002,
        "meta_mean_motion_ddot": 0,
        "tle_line1": "1 30898U 99025AYL 25335.99446732  .00060002  00000+0  27050-2 0  9998",
        "tle_line2": "2 30898  99.0257 245.3350 0039910 146.5036 213.8730 15.20079673662087"
      },
      "geometry": {
        "type": "Point",
        "coordinates": [
          76.31184249913944,
          47.76267521603754
        ]
      }
    },
    {
      "type": "Feature",
      "properties": {
        "norad_id": 30903,
        "name": "FENGYUN 1C DEB",
        "group": "fengyun-1c-debris",
        "lat": -65.7898426825264,
        "lon": -116.30221042170196,
        "alt_km": 979.1682288133825,
        "timestamp": "2025-12-02T17:49:12.307381+00:00",
        "meta_object_name": "FENGYUN 1C DEB",
        "meta_object_id": "1999-025AYR",
        "meta_epoch": "2025-12-02T09:33:26.431776",
        "meta_mean_motion": 13.97588401,
        "meta_eccentricity": 0.0096787,
        "meta_inclination": 99.3706,
        "meta_ra_of_asc_node": 221.8009,
        "meta_arg_of_pericenter": 121.0732,
        "meta_mean_anomaly": 239.9973,
        "meta_ephemeris_type": 0,
        "meta_classification_type": "U",
        "meta_norad_cat_id": 30903,
        "meta_element_set_no": 999,
        "meta_rev_at_epoch": 68560,
        "meta_bstar": 0.0004285,
        "meta_mean_motion_dot": 5.83e-06,
        "meta_mean_motion_ddot": 0,
        "tle_line1": "1 30903U 99025AYR 25336.39822259  .00000583  00000+0  42850-3 0  9996",
        "tle_line2": "2 30903  99.3706 221.8009 0096787 121.0732 239.9973 13.97588401685609"
      },
      "geometry": {
        "type": "Point",
        "coordinates": [
          -116.30221042170196,
          -65.7898426825264
        ]
      }
    },
    {
      "type": "Feature",
      "properties": {
        "norad_id": 30905,
        "name": "FENGYUN 1C DEB",
        "group": "fengyun-1c-debris",
        "lat": -77.24036453866496,
        "lon": 95.85572129541742,
        "alt_km": 881.0715327725129,
        "timestamp": "2025-12-02T17:49:12.307392+00:00",
        "meta_object_name": "FENGYUN 1C DEB",
        "meta_object_id": "1999-025AYT",
        "meta_epoch": "2025-11-30T00:08:46.442976",
        "meta_mean_motion": 14.17721969,
        "meta_eccentricity": 0.00573795,
        "meta_inclination": 98.8903,
        "meta_ra_of_asc_node": 49.3935,
        "meta_arg_of_pericenter": 116.7587,
        "meta_mean_anomaly": 243.9475,
        "meta_ephemeris_type": 0,
        "meta_classification_type": "U",
        "meta_norad_cat_id": 30905,
        "meta_element_set_no": 999,
        "meta_rev_at_epoch": 95942,
        "meta_bstar": 0.0019476462,
        "meta_mean_motion_dot": 3.99e-05,
        "meta_mean_motion_ddot": 0,
        "tle_line1": "1 30905U 99025AYT 25334.00609309  .00003990  00000+0  19476-2 0  9995",
        "tle_line2": "2 30905  98.8903  49.3935 0057379 116.7587 243.9475 14.17721969959425"
      },
      "geometry": {
        "type": "Point",
        "coordinates": [
          95.85572129541742,
          -77.24036453866496
        ]
      }
    }
  ]
}